NORAD_CAT_ID,OBJECT_NAME,OBJECT_TYPE,EPOCH,MEAN_MOTION,ECCENTRICITY,INCLINATION,RA_OF_ASC_NODE,ARG_OF_PERICENTER,MEAN_ANOMALY,BSTAR,MEAN_MOTION_DOT,MEAN_MOTION_DDOT,TLE_LINE0,TLE_LINE1,TLE_LINE2,SEMIMAJOR_AXIS,PERIOD,APOGEE,PERIGEE,DECAYED
51756.0,STARLINK-3513,PAYLOAD,2022-07-27 22:00:00,15.08878154,0.0002006999999999,53.2193,118.2907,53.5493,19.3081,-0.0040832,-0.00064757,0.0,0 STARLINK-3513,1 51756U 22016AU  22208.91667824 -.00064757  00000-0 -40832-2 0  9992,2 51756  53.2193 118.2907 0002007  53.5493  19.3081 15.08878154  1308,6917.764,95.435,541.0169999999998,538.24,0.0
51756.0,STARLINK-3513,PAYLOAD,2022-07-28 00:00:00,15.08853395,0.0002056,53.2192,117.917,51.6882,114.0801,-0.0021934,-0.0003503999999999,0.0,0 STARLINK-3513,1 51756U 22016AU  22209.00001157 -.00035040  00000-0 -21934-2 0  9999,2 51756  53.2192 117.9170 0002056  51.6882 114.0801 15.08853395 25398,6917.839,95.437,541.127,538.2819999999998,0.0
51756.0,STARLINK-3513,PAYLOAD,2022-07-28 14:00:01,15.08821234,0.0001875,53.2192,115.2973,54.9933,41.0763,0.0026875,0.00042721,0.0,0 STARLINK-3513,1 51756U 22016AU  22209.58334491  .00042721  00000-0  26875-2 0  9993,2 51756  53.2192 115.2973 0001875  54.9933  41.0763 15.08821234  1309,6917.938,95.439,541.1,538.506,0.0
51756.0,STARLINK-3513,PAYLOAD,2022-07-28 22:00:00,15.08863723,0.0001976,53.2193,113.8021,54.4255,53.2324,-0.0017378,-0.00027857,0.0,0 STARLINK-3513,1 51756U 22016AU  22209.91667824 -.00027857  00000-0 -17378-2 0  9992,2 51756  53.2193 113.8021 0001976  54.4255  53.2324 15.08863723  1309,6917.808000000001,95.436,541.04,538.306,0.0
51756.0,STARLINK-3513,PAYLOAD,2022-07-29 00:00:00,15.08854595,0.0002035,53.2191,113.4292,52.9165,147.64700000000005,-0.00092898,-0.00015049,0.0,0 STARLINK-3513,1 51756U 22016AU  22210.00001157 -.00015049  00000-0 -92898-3 0  9996,2 51756  53.2191 113.4292 0002035  52.9165 147.6470 15.08854595 25542,6917.8359999999975,95.437,541.109,538.293,0.0
51756.0,STARLINK-3513,PAYLOAD,2022-07-29 14:00:01,15.08806076,0.0001795,53.2188,110.8086,55.5151,75.3612,0.0026212,0.00041636,0.0,0 STARLINK-3513,1 51756U 22016AU  22210.58334491  .00041636  00000-0  26212-2 0  9994,2 51756  53.2188 110.8086 0001795  55.5151  75.3612 15.08806076  1300,6917.984,95.44,541.091,538.607,0.0
51756.0,STARLINK-3513,PAYLOAD,2022-07-29 22:00:00,15.08844143,0.0001925,53.2188,109.3136,54.7679,87.679,-0.0017414,-0.00027899,0.0,0 STARLINK-3513,1 51756U 22016AU  22210.91667824 -.00027899  00000-0 -17414-2 0  9991,2 51756  53.2188 109.3136 0001925  54.7679  87.6790 15.08844143  1300,6917.868,95.437,541.064,538.401,0.0
51756.0,STARLINK-3513,PAYLOAD,2022-07-30 06:00:00,15.08831148,0.0001998,53.2183,107.8177,51.4289,102.605,0.00065736,0.00010187,0.0,0 STARLINK-3513,1 51756U 22016AU  22211.25001157  .00010187  00000-0  65736-3 0  9991,2 51756  53.2183 107.8177 0001998  51.4289 102.6050 15.08831148 25735,6917.906999999997,95.438,541.155,538.39,0.0
51756.0,STARLINK-3513,PAYLOAD,2022-07-30 14:00:01,15.08816502,0.0001848,53.2181,106.3198,58.3916,107.2387,0.0025171,0.00039974,0.0,0 STARLINK-3513,1 51756U 22016AU  22211.58334491  .00039974  00000-0  25171-2 0  9990,2 51756  53.2181 106.3198 0001848  58.3916 107.2387 15.08816502  1305,6917.9519999999975,95.439,541.096,538.539,0.0
51756.0,STARLINK-3513,PAYLOAD,2022-07-30 22:00:00,15.08850924,0.0001981,53.2182,104.8249,56.8582,120.3567,-0.0014938,-0.00023991,0.0,0 STARLINK-3513,1 51756U 22016AU  22211.91667824 -.00023991  00000-0 -14938-2 0  9999,2 51756  53.2182 104.8249 0001981  56.8582 120.3567 15.08850924  1308,6917.847,95.437,541.082,538.342,0.0
51756.0,STARLINK-3513,PAYLOAD,2022-07-31 06:00:02,15.08844998,0.0002038,53.2177,103.3287,53.9523,134.9202,-5.7305e-06,-3.79e-06,0.0,0 STARLINK-3513,1 51756U 22016AU  22212.25002315 -.00000379  00000-0 -57305-5 0  9998,2 51756  53.2177 103.3287 0002038  53.9523 134.9202 15.08844998 25885,6917.865,95.437,541.14,538.32,0.0
51756.0,STARLINK-3513,PAYLOAD,2022-07-31 14:00:01,15.08829645,0.0001903,53.2176,101.8307,60.2125,140.2059,0.0020961,0.0003322,0.0,0 STARLINK-3513,1 51756U 22016AU  22212.58334491  .00033220  00000-0  20961-2 0  9991,2 51756  53.2176 101.8307 0001903  60.2125 140.2059 15.08829645  1302,6917.9119999999975,95.438,541.094,538.461,0.0
51756.0,STARLINK-3513,PAYLOAD,2022-07-31 22:00:00,15.08852556,0.0001993,53.2177,100.3358,56.986,155.032,-0.003259,-0.00051801,0.0,0 STARLINK-3513,1 51756U 22016AU  22212.91667824 -.00051801  00000-0 -32590-2 0  9995,2 51756  53.2177 100.3358 0001993  56.9860 155.0320 15.08852556  1302,6917.842,95.437,541.086,538.328,0.0
51756.0,STARLINK-3513,PAYLOAD,2022-08-01 14:00:01,15.08812452,0.0001904,53.2174,97.3414,59.9658,175.2288,0.0026149999999999,0.00041544,0.0,0 STARLINK-3513,1 51756U 22016AU  22213.58334491  .00041544  00000-0  26150-2 0  9996,2 51756  53.2174  97.3414 0001904  59.9658 175.2288 15.08812452  1305,6917.965,95.439,541.1469999999998,538.512,0.0
51756.0,STARLINK-3513,PAYLOAD,2022-08-01 22:00:00,15.088424,0.0002063,53.2176,95.8467,57.1004,189.6754,-0.00092571,-0.00014992,0.0,0 STARLINK-3513,1 51756U 22016AU  22213.91667824 -.00014992  00000-0 -92571-3 0  9992,2 51756  53.2176  95.8467 0002063  57.1004 189.6754 15.08842400  1303,6917.873000000001,95.437,541.165,538.311,0.0
51756.0,STARLINK-3513,PAYLOAD,2022-08-02 06:00:02,15.08851769,0.000207,53.2176,94.3501,55.0589,203.3655,-0.0010669,-0.00017234,0.0,0 STARLINK-3513,1 51756U 22016AU  22214.25002315 -.00017234  00000-0 -10669-2 0  9997,2 51756  53.2176  94.3501 0002070  55.0589 203.3655 15.08851769 26184,6917.844,95.437,541.141,538.2769999999998,0.0
51756.0,STARLINK-3513,PAYLOAD,2022-08-02 14:00:01,15.08825962,0.0001993,53.2178,92.8521,61.255,208.7139,0.0026544,0.00042194,0.0,0 STARLINK-3513,1 51756U 22016AU  22214.58334491  .00042194  00000-0  26544-2 0  9996,2 51756  53.2178  92.8521 0001993  61.2550 208.7139 15.08825962 26239,6917.9230000000025,95.438,541.1669999999998,538.41,0.0
51756.0,STARLINK-3513,PAYLOAD,2022-08-03 06:00:00,15.08846727,0.0002032,53.218,89.8608,54.7937,238.3738,-0.0019469,-0.00031146,0.0,0 STARLINK-3513,1 51756U 22016AU  22215.25001157 -.00031146  00000-0 -19469-2 0  9996,2 51756  53.2180  89.8608 0002032  54.7937 238.3738 15.08846727 26332,6917.86,95.437,541.131,538.319,0.0
51756.0,STARLINK-3513,PAYLOAD,2022-08-03 14:00:01,15.08814715,0.0001961,53.2184,88.3628,61.4449,243.3169,0.0026815999999999,0.00042619,0.0,0 STARLINK-3513,1 51756U 22016AU  22215.58334491  .00042619  00000-0  26816-2 0  9991,2 51756  53.2184  88.3628 0001961  61.4449 243.3169 15.08814715  1301,6917.958000000001,95.439,541.179,538.466,0.0
51756.0,STARLINK-3513,PAYLOAD,2022-08-03 22:00:01,15.08840548,0.0002110999999999,53.2185,86.8681,57.3619,259.0464,-0.00069893,-0.00011395,0.0,0 STARLINK-3513,1 51756U 22016AU  22215.91668981 -.00011395  00000-0 -69893-3 0  9994,2 51756  53.2185  86.8681 0002111  57.3619 259.0464 15.08840548  1300,6917.879,95.438,541.2040000000002,538.283,0.0
51756.0,STARLINK-3513,PAYLOAD,2022-08-04 14:00:01,15.08842907,0.0001935,53.2189,83.8738,62.9593,276.5797,9.3218e-06,-1.4e-06,0.0,0 STARLINK-3513,1 51756U 22016AU  22216.58334491 -.00000140  00000-0  93218-5 0  9999,2 51756  53.2189  83.8738 0001935  62.9593 276.5797 15.08842907 26536,6917.871999999999,95.437,541.075,538.398,0.0
51756.0,STARLINK-3513,PAYLOAD,2022-08-04 22:00:00,15.08825985,0.0002026,53.219,82.3792,57.333,293.8083,-0.00066274,-0.00010816,0.0,0 STARLINK-3513,1 51756U 22016AU  22216.91667824 -.00010816  00000-0 -66274-3 0  9997,2 51756  53.2190  82.3792 0002026  57.3330 293.8083 15.08825985  1306,6917.9230000000025,95.438,541.19,538.387,0.0
51756.0,STARLINK-3513,PAYLOAD,2022-08-05 14:00:01,15.0882112,0.0001872,53.2191,79.385,64.2292,310.1375,0.0023398,0.00037127,0.0,0 STARLINK-3513,1 51756U 22016AU  22217.58335648  .00037127  00000-0  23398-2 0  9998,2 51756  53.2191  79.3850 0001872  64.2292 310.1375 15.08821120  1304,6917.938,95.439,541.0980000000002,538.508,0.0
51756.0,STARLINK-3513,PAYLOAD,2022-08-05 22:00:00,15.08839554,0.0002015,53.2191,77.8906,59.2143,326.6783,-0.00041918,-6.953e-05,0.0,0 STARLINK-3513,1 51756U 22016AU  22217.91667824 -.00006953  00000-0 -41918-3 0  9993,2 51756  53.2191  77.8906 0002015  59.2143 326.6783 15.08839554  1303,6917.882,95.438,541.141,538.3530000000002,0.0
51756.0,STARLINK-3513,PAYLOAD,2022-08-06 08:00:01,15.08848246,0.0001875999999999,53.219,76.0191,62.354,68.0301,-0.00082339,-0.00013372,0.0,0 STARLINK-3513,1 51756U 22016AU  22218.33334491 -.00013372  00000-0 -82339-3 0  9996,2 51756  53.2190  76.0191 0001876  62.3540  68.0301 15.08848246 26802,6917.855,95.437,541.018,538.422,0.0
51756.0,STARLINK-3513,PAYLOAD,2022-08-06 14:00:01,15.08850139,0.0001835,53.219,74.8964,65.9188,343.1645,-0.00071872,-0.00011712,0.0,0 STARLINK-3513,1 51756U 22016AU  22218.58334491 -.00011712  00000-0 -71872-3 0  9999,2 51756  53.2190  74.8964 0001835  65.9188 343.1645 15.08850139  1308,6917.849,95.437,540.984,538.445,0.0
51756.0,STARLINK-3513,PAYLOAD,2022-08-06 22:00:00,15.08821285,0.0001919,53.2189,73.402,59.8123,0.8752,-0.00018005,-3.151e-05,0.0,0 STARLINK-3513,1 51756U 22016AU  22218.91667824 -.00003151  00000-0 -18005-3 0  9992,2 51756  53.2189  73.4020 0001919  59.8123   0.8752 15.08821285  1304,6917.938,95.439,541.13,538.475,0.0
51756.0,STARLINK-3513,PAYLOAD,2022-08-07 14:00:01,15.08826314,0.0001816,53.2188,70.4078,67.2489,16.5911,0.001363,0.00021463,0.0,0 STARLINK-3513,1 51756U 22016AU  22219.58334491  .00021463  00000-0  13630-2 0  9999,2 51756  53.2188  70.4078 0001816  67.2489  16.5911 15.08826314 26998,6917.922,95.438,541.044,538.531,0.0
51756.0,STARLINK-3513,PAYLOAD,2022-08-07 21:34:45,15.08840791,0.0001976999999999,53.2192,68.9913,64.6618,295.4578,0.00014515,2.023e-05,0.0,0 STARLINK-3513,1 51756U 22016AU  22219.89913986  .00002023  00000-0  14515-3 0  9990,2 51756  53.2192  68.9913 0001977  64.6618 295.4578 15.08840791 25975,6917.878000000002,95.438,541.111,538.375,0.0
